NORAD_CAT_ID,OBJECT_NAME,OBJECT_TYPE,EPOCH,MEAN_MOTION,ECCENTRICITY,INCLINATION,RA_OF_ASC_NODE,ARG_OF_PERICENTER,MEAN_ANOMALY,BSTAR,MEAN_MOTION_DOT,MEAN_MOTION_DDOT,TLE_LINE0,TLE_LINE1,TLE_LINE2,SEMIMAJOR_AXIS,PERIOD,APOGEE,PERIGEE,DECAYED
49761.0,STARLINK-3203,PAYLOAD,2024-01-10 04:12:30,15.08833654,0.0001331,53.2165,83.3859,97.0966,263.0178,2.2033e-05,6.3e-07,0.0,0 STARLINK-3203,1 49761U 21115AP  24010.17535596  .00000063  00000-0  22033-4 0  9998,2 49761  53.2165  83.3859 0001331  97.0966 263.0178 15.08833654117595,6917.9,95.438,540.686,538.844,0.0
49761.0,STARLINK-3203,PAYLOAD,2024-01-10 10:34:03,15.08837366,0.0001318,53.2165,82.1965,95.4266,264.6876,5.0679e-05,5.19e-06,0.0,0 STARLINK-3203,1 49761U 21115AP  24010.44031333  .00000519  00000-0  50679-4 0  9991,2 49761  53.2165  82.1965 0001318  95.4266 264.6876 15.08837366116528,6917.888,95.438,540.665,538.842,0.0
49761.0,STARLINK-3203,PAYLOAD,2024-01-10 13:44:48,15.08842882,0.0001306,53.2166,81.6018,94.8956,265.2185,8.5399e-05,1.072e-05,0.0,0 STARLINK-3203,1 49761U 21115AP  24010.57278889  .00001072  00000-0  85399-4 0  9996,2 49761  53.2166  81.6018 0001306  94.8956 265.2185 15.08842882117652,6917.872,95.437,540.64,538.833,0.0
49761.0,STARLINK-3203,PAYLOAD,2024-01-11 12:00:12,15.08853824,0.0001339,53.2169,77.4393,91.0802,269.0344,0.0001962,2.837e-05,0.0,0 STARLINK-3203,1 49761U 21115AP  24011.50014098  .00002837  00000-0  19620-3 0  9993,2 49761  53.2169  77.4393 0001339  91.0802 269.0344 15.08853824116688,6917.838,95.437,540.629,538.777,0.0
49761.0,STARLINK-3203,PAYLOAD,2024-01-12 03:54:04,15.08834437,0.0001267,53.2172,74.4654,94.821,265.2927,8.2025e-05,1.018e-05,0.0,0 STARLINK-3203,1 49761U 21115AP  24012.16255404  .00001018  00000-0  82025-4 0  9994,2 49761  53.2172  74.4654 0001267  94.8210 265.2927 15.08834437117891,6917.897,95.438,540.639,538.886,0.0
49761.0,STARLINK-3203,PAYLOAD,2024-01-12 10:15:37,15.08832537,0.0001391,53.2171,73.2762,94.9439,265.1712,5.1813e-05,5.37e-06,0.0,0 STARLINK-3203,1 49761U 21115AP  24012.42751665  .00000537  00000-0  51813-4 0  9999,2 49761  53.2171  73.2762 0001391  94.9439 265.1712 15.08832537116821,6917.903,95.438,540.73,538.806,0.0
49761.0,STARLINK-3203,PAYLOAD,2024-01-13 10:06:24,15.08842985,0.0001475,53.2161,68.8157,95.296,264.8201,0.00014876,2.081e-05,0.0,0 STARLINK-3203,1 49761U 21115AP  24013.42111487  .00002081  00000-0  14876-3 0  9995,2 49761  53.2161  68.8157 0001475  95.2960 264.8201 15.08842985118081,6917.871,95.437,540.757,538.716,0.0
49761.0,STARLINK-3203,PAYLOAD,2024-01-14 03:35:39,15.08838279,0.0001495,53.2159,65.5445,99.1262,260.99,0.00025919,3.839e-05,0.0,0 STARLINK-3203,1 49761U 21115AP  24014.14976045  .00003839  00000-0  25919-3 0  9996,2 49761  53.2159  65.5445 0001495  99.1262 260.9900 15.08838279118198,6917.886,95.438,540.785,538.716,0.0
49761.0,STARLINK-3203,PAYLOAD,2024-01-14 08:21:48,15.08847071,0.000148,53.216,64.6525,97.4646,262.6514,0.00039339,5.98e-05,0.0,0 STARLINK-3203,1 49761U 21115AP  24014.34847762  .00005980  00000-0  39339-3 0  9991,2 49761  53.2160  64.6525 0001480  97.4646 262.6514 15.08847071117111,6917.859,95.437,540.748,538.7,0.0
49761.0,STARLINK-3203,PAYLOAD,2024-01-15 03:26:26,15.08843117,0.0001457,53.2158,61.0837,96.2547,263.8611,0.00013939,1.931e-05,0.0,0 STARLINK-3203,1 49761U 21115AP  24015.14335763  .00001931  00000-0  13939-3 0  9993,2 49761  53.2158  61.0837 0001457  96.2547 263.8611 15.08843117118340,6917.871,95.437,540.744,538.728,0.0
49761.0,STARLINK-3203,PAYLOAD,2024-01-15 08:12:35,15.08847437,0.0001538,53.2159,60.1918,99.6943,260.4223,0.00024432,3.603e-05,0.0,0 STARLINK-3203,1 49761U 21115AP  24015.34207506  .00003603  00000-0  24432-3 0  9996,2 49761  53.2159  60.1918 0001538  99.6943 260.4223 15.08847437117269,6917.858,95.437,540.787,538.659,0.0
49761.0,STARLINK-3203,PAYLOAD,2024-01-16 03:17:13,15.08830453,0.0001465,53.2165,56.6251,80.474,279.6418,-4.4257e-05,-9.92e-06,0.0,0 STARLINK-3203,1 49761U 21115AP  24016.13696481 -.00000992  00000-0 -44257-4 0  9996,2 49761  53.2165  56.6251 0001465  80.4740 279.6418 15.08830453118492,6917.91,95.438,540.788,538.761,0.0
49761.0,STARLINK-3203,PAYLOAD,2024-01-16 08:03:23,15.08829451,0.0001456,53.2173,55.7325,86.887,273.2288,-1.2696e-05,-4.9e-06,0.0,0 STARLINK-3203,1 49761U 21115AP  24016.33568924 -.00000490  00000-0 -12696-4 0  9993,2 49761  53.2173  55.7325 0001456  86.8870 273.2288 15.08829451117419,6917.913,95.438,540.785,538.77,0.0
49761.0,STARLINK-3203,PAYLOAD,2024-01-16 20:46:28,15.08834486,0.0001522,53.2169,53.3529,94.6692,265.4474,4.3934e-05,4.11e-06,0.0,0 STARLINK-3203,1 49761U 21115AP  24016.86560547  .00000411  00000-0  43934-4 0  9994,2 49761  53.2169  53.3529 0001522  94.6692 265.4474 15.08834486117499,6917.897,95.438,540.815,538.709,0.0
49761.0,STARLINK-3203,PAYLOAD,2024-01-17 03:08:00,15.08837556,0.0001553,53.2162,52.163,94.3376,265.7794,7.6907e-05,9.36e-06,0.0,0 STARLINK-3203,1 49761U 21115AP  24017.13056294  .00000936  00000-0  76907-4 0  9992,2 49761  53.2162  52.1630 0001553  94.3376 265.7794 15.08837556118649,6917.888,95.438,540.827,538.679,0.0
49761.0,STARLINK-3203,PAYLOAD,2024-01-17 09:29:33,15.08849602,0.0001556,53.2162,50.9738,88.3506,271.7665,0.00051675,7.948e-05,0.0,0 STARLINK-3203,1 49761U 21115AP  24017.39552143  .00007948  00000-0  51675-3 0  9998,2 49761  53.2162  50.9738 0001556  88.3506 271.7665 15.08849602117575,6917.851,95.437,540.792,538.64,0.0
49761.0,STARLINK-3203,PAYLOAD,2024-01-17 22:12:38,15.08841773,0.0001586,53.216,48.5948,90.061,270.0564,0.00026701,3.964e-05,0.0,0 STARLINK-3203,1 49761U 21115AP  24017.92544492  .00003964  00000-0  26701-3 0  9991,2 49761  53.2160  48.5948 0001586  90.0610 270.0564 15.08841773117658,6917.875,95.437,540.837,538.643,0.0
49761.0,STARLINK-3203,PAYLOAD,2024-01-18 02:58:47,15.08840956,0.0001586,53.216,47.7025,92.7065,267.4109,0.0001573,2.216e-05,0.0,0 STARLINK-3203,1 49761U 21115AP  24018.12416506  .00002216  00000-0  15730-3 0  9997,2 49761  53.2160  47.7025 0001586  92.7065 267.4109 15.08840956118791,6917.877,95.437,540.84,538.645,0.0
49761.0,STARLINK-3203,PAYLOAD,2024-01-18 10:55:43,15.08851213,0.000163,53.2159,46.2155,96.541,263.5768,0.00044035,6.729e-05,0.0,0 STARLINK-3203,1 49761U 21115AP  24018.45536197  .00006729  00000-0  44035-3 0  9995,2 49761  53.2159  46.2155 0001630  96.5410 263.5768 15.08851213117732,6917.846,95.437,540.839,538.584,0.0
49761.0,STARLINK-3203,PAYLOAD,2024-01-18 22:03:25,15.08842038,0.0001689,53.2162,44.1341,97.3706,262.7478,0.00024578,3.626e-05,0.0,0 STARLINK-3203,1 49761U 21115AP  24018.91904574  .00003626  00000-0  24578-3 0  9997,2 49761  53.2162  44.1341 0001689  97.3706 262.7478 15.08842038117803,6917.874,95.437,540.908,538.571,0.0
49761.0,STARLINK-3203,PAYLOAD,2024-01-19 02:49:35,15.08838859,0.0001692,53.2161,43.241,102.0985,258.0197,0.00020575,2.988e-05,0.0,0 STARLINK-3203,1 49761U 21115AP  24019.11776679  .00002988  00000-0  20575-3 0  9996,2 49761  53.2161  43.2410 0001692 102.0985 258.0197 15.08838859118944,6917.884,95.438,540.919,538.578,0.0
49761.0,STARLINK-3203,PAYLOAD,2024-01-19 09:11:07,15.08846834,0.0001737,53.2162,42.0519,98.1155,262.0034,0.00028135,4.193e-05,0.0,0 STARLINK-3203,1 49761U 21115AP  24019.38272540  .00004193  00000-0  28135-3 0  9993,2 49761  53.2162  42.0519 0001737  98.1155 262.0034 15.08846834117874,6917.86,95.437,540.926,538.523,0.0
49761.0,STARLINK-3203,PAYLOAD,2024-01-19 21:54:12,15.08843777,0.0001708,53.2163,39.6724,106.8749,253.2431,0.00027877,4.152e-05,0.0,0 STARLINK-3203,1 49761U 21115AP  24019.91264626  .00004152  00000-0  27877-3 0  9995,2 49761  53.2163  39.6724 0001708 106.8749 253.2431 15.08843777117954,6917.869,95.437,540.915,538.552,0.0
49761.0,STARLINK-3203,PAYLOAD,2024-01-20 07:26:31,15.08846371,0.0001621,53.2165,37.8884,107.509,252.6079,0.00026848,3.988e-05,0.0,0 STARLINK-3203,1 49761U 21115AP  24020.31008490  .00003988  00000-0  26848-3 0  9999,2 49761  53.2165  37.8884 0001621 107.5090 252.6079 15.08846371119129,6917.861,95.437,540.847,538.605,0.0
49761.0,STARLINK-3203,PAYLOAD,2024-01-20 21:44:59,15.08840351,0.0001501,53.2173,35.2118,104.6118,255.5041,0.00016766,2.381e-05,0.0,0 STARLINK-3203,1 49761U 21115AP  24020.90624803  .00002381  00000-0  16766-3 0  9990,2 49761  53.2173  35.2118 0001501 104.6118 255.5041 15.08840351118106,6917.879,95.438,540.783,538.706,0.0
49761.0,STARLINK-3203,PAYLOAD,2024-01-21 04:06:32,15.08838405,0.0001584,53.2169,34.0229,97.9863,262.1309,0.00012709,1.735e-05,0.0,0 STARLINK-3203,1 49761U 21115AP  24021.17121044  .00001735  00000-0  12709-3 0  9994,2 49761  53.2169  34.0229 0001584  97.9863 262.1309 15.08838405119258,6917.885,95.438,540.846,538.654,0.0
49761.0,STARLINK-3203,PAYLOAD,2024-01-21 05:41:55,15.08841395,0.000158,53.2169,33.7258,95.5952,264.522,0.00017237,2.456e-05,0.0,0 STARLINK-3203,1 49761U 21115AP  24021.23744955  .00002456  00000-0  17237-3 0  9995,2 49761  53.2169  33.7258 0001580  95.5952 264.5220 15.08841395118153,6917.876,95.437,540.834,538.648,0.0
49761.0,STARLINK-3203,PAYLOAD,2024-01-21 21:35:47,15.08838454,0.0001535,53.217,30.7527,89.7651,270.3517,0.0001246,1.695e-05,0.0,0 STARLINK-3203,1 49761U 21115AP  24021.89985084  .00001695  00000-0  12460-3 0  9994,2 49761  53.2170  30.7527 0001535  89.7651 270.3517 15.08838454118259,6917.885,95.438,540.812,538.688,0.0
49761.0,STARLINK-3203,PAYLOAD,2024-01-22 07:08:05,15.08842326,0.0001679,53.2177,28.9685,99.9346,260.1836,0.00014986,2.098e-05,0.0,0 STARLINK-3203,1 49761U 21115AP  24022.29728717  .00002098  00000-0  14986-3 0  9990,2 49761  53.2177  28.9685 0001679  99.9346 260.1836 15.08842326119427,6917.873,95.437,540.9,538.577,0.0
49761.0,STARLINK-3203,PAYLOAD,2024-01-22 21:26:34,15.08832155,0.000161,53.2174,26.2918,93.3943,266.7233,9.7335e-05,1.261e-05,0.0,0 STARLINK-3203,1 49761U 21115AP  24022.89345344  .00001261  00000-0  97335-4 0  9998,2 49761  53.2174  26.2918 0001610  93.3943 266.7233 15.08832155118409,6917.904,95.438,540.883,538.656,0.0
